GLOBALSTAR M063         
1 26081U 00008A   25076.90047935 -.00000065  00000+0  26189-3 0  9992
2 26081  51.9989 351.9895 0004895 134.1490 301.5836 11.86166899146741
GLOBALSTAR M060         
1 26083U 00008C   25076.93619856  .00000008  00000+0  98176-3 0  9995
2 26083  52.0034 311.2248 0002766 310.6268  62.8237 12.17657154141253
GLOBALSTAR M064         
1 26084U 00008D   25076.72726498 -.00000060  00000+0  32682-3 0  9993
2 26084  52.0014  92.3489 0001471 233.2705 126.7993 11.88531584156221
GLOBALSTAR M065         
1 31571U 07020A   25076.61026429  .00000052  00000+0  87176-3 0  9994
2 31571  51.9882 144.9998 0010729 105.5933  43.9366 12.62000399821847
GLOBALSTAR M069         
1 31573U 07020C   25076.57959882 -.00000070  00000+0  20342-3 0  9992
2 31573  51.9932 111.4303 0000040  48.0700 119.3449 12.42142657822788
GLOBALSTAR M072         
1 31574U 07020D   25076.94375648 -.00000087  00000+0 -44295-4 0  9999
2 31574  52.0134 234.8682 0001953 139.2310  33.4432 11.91776793820580
GLOBALSTAR M071         
1 31576U 07020F   25076.91771715 -.00000090  00000+0  14794-4 0  9997
2 31576  52.0045 126.5772 0000554 250.1916 281.4378 12.18250307483814
